{"fetched_at":"2026-07-12T17:32:22.539Z","source":"https://celestrak.org/NORAD/elements/gp.php?GROUP=kuiper&FORMAT=JSON","constellation":"kuiper","records":[{"OBJECT_NAME":"KUIPER-00008","OBJECT_ID":"2025-088A","EPOCH":"2026-07-12T04:38:41.911296","CLASSIFICATION_TYPE":"U","MEAN_MOTION":14.79929524,"ECCENTRICITY":0.0000682,"INCLINATION":51.9009,"RA_OF_ASC_NODE":257.4537,"ARG_OF_PERICENTER":115.2596,"MEAN_ANOMALY":244.8437,"EPHEMERIS_TYPE":0,"NORAD_CAT_ID":63724,"ELEMENT_SET_NO":999,"REV_AT_EPOCH":6648,"BSTAR":0.00012808,"MEAN_MOTION_DOT":0.00000755,"MEAN_MOTION_DDOT":0},{"OBJECT_NAME":"KUIPER-00009","OBJECT_ID":"2025-088B","EPOCH":"2026-07-12T09:51:54.074592","CLASSIFICATION_TYPE":"U","MEAN_MOTION":14.79931641,"ECCENTRICITY":0.0000439,"INCLINATION":51.9022,"RA_OF_ASC_NODE":274.1233,"ARG_OF_PERICENTER":95.6781,"MEAN_ANOMALY":264.4231,"EPHEMERIS_TYPE":0,"NORAD_CAT_ID":63725,"ELEMENT_SET_NO":999,"REV_AT_EPOCH":6626,"BSTAR":0.00027202,"MEAN_MOTION_DOT":0.00001853,"MEAN_MOTION_DDOT":0},{"OBJECT_NAME":"KUIPER-00010","OBJECT_ID":"2025-088C","EPOCH":"2026-07-11T16:37:10.066368","CLASSIFICATION_TYPE":"U","MEAN_MOTION":14.79926589,"ECCENTRICITY":0.00005175,"INCLINATION":51.9008,"RA_OF_ASC_NODE":254.7713,"ARG_OF_PERICENTER":91.0866,"MEAN_ANOMALY":269.0155,"EPHEMERIS_TYPE":0,"NORAD_CAT_ID":63726,"ELEMENT_SET_NO":999,"REV_AT_EPOCH":6609,"BSTAR":0.00010141725,"MEAN_MOTION_DOT":0.00000552,"MEAN_MOTION_DDOT":0},{"OBJECT_NAME":"KUIPER-00011","OBJECT_ID":"2025-088D","EPOCH":"2026-07-10T16:55:28.972416","CLASSIFICATION_TYPE":"U","MEAN_MOTION":14.7993245,"ECCENTRICITY":0.00006274,"INCLINATION":51.9004,"RA_OF_ASC_NODE":266.687,"ARG_OF_PERICENTER":109.5089,"MEAN_ANOMALY":250.5941,"EPHEMERIS_TYPE":0,"NORAD_CAT_ID":63727,"ELEMENT_SET_NO":999,"REV_AT_EPOCH":6597,"BSTAR":0.00011256552,"MEAN_MOTION_DOT":0.00000637,"MEAN_MOTION_DDOT":0},{"OBJECT_NAME":"KUIPER-00012","OBJECT_ID":"2025-088E","EPOCH":"2026-07-12T12:15:43.138944","CLASSIFICATION_TYPE":"U","MEAN_MOTION":14.7993306,"ECCENTRICITY":0.0000451,"INCLINATION":51.9009,"RA_OF_ASC_NODE":243.6377,"ARG_OF_PERICENTER":88.7728,"MEAN_ANOMALY":271.3286,"EPHEMERIS_TYPE":0,"NORAD_CAT_ID":63728,"ELEMENT_SET_NO":999,"REV_AT_EPOCH":6640,"BSTAR":0.000092013,"MEAN_MOTION_DOT":0.0000048,"MEAN_MOTION_DDOT":0},{"OBJECT_NAME":"KUIPER-00013","OBJECT_ID":"2025-088F","EPOCH":"2026-07-12T10:36:38.265120","CLASSIFICATION_TYPE":"U","MEAN_MOTION":14.79926861,"ECCENTRICITY":0.0000536,"INCLINATION":51.9014,"RA_OF_ASC_NODE":276.4595,"ARG_OF_PERICENTER":93.1228,"MEAN_ANOMALY":266.9796,"EPHEMERIS_TYPE":0,"NORAD_CAT_ID":63729,"ELEMENT_SET_NO":999,"REV_AT_EPOCH":6604,"BSTAR":0.00016512,"MEAN_MOTION_DOT":0.00001038,"MEAN_MOTION_DDOT":0},{"OBJECT_NAME":"KUIPER-00014","OBJECT_ID":"2025-088G","EPOCH":"2026-07-12T11:25:13.230048","CLASSIFICATION_TYPE":"U","MEAN_MOTION":14.79927131,"ECCENTRICITY":0.0000578,"INCLINATION":51.9016,"RA_OF_ASC_NODE":276.253,"ARG_OF_PERICENTER":106.4197,"MEAN_ANOMALY":253.6828,"EPHEMERIS_TYPE":0,"NORAD_CAT_ID":63730,"ELEMENT_SET_NO":999,"REV_AT_EPOCH":6586,"BSTAR":0.000070449,"MEAN_MOTION_DOT":0.00000316,"MEAN_MOTION_DDOT":0},{"OBJECT_NAME":"KUIPER-00015","OBJECT_ID":"2025-088H","EPOCH":"2026-07-12T11:58:19.228224","CLASSIFICATION_TYPE":"U","MEAN_MOTION":14.79939546,"ECCENTRICITY":0.0000473,"INCLINATION":51.8999,"RA_OF_ASC_NODE":286.2143,"ARG_OF_PERICENTER":112.6029,"MEAN_ANOMALY":247.4983,"EPHEMERIS_TYPE":0,"NORAD_CAT_ID":63731,"ELEMENT_SET_NO":999,"REV_AT_EPOCH":6618,"BSTAR":0.000051114,"MEAN_MOTION_DOT":0.00000169,"MEAN_MOTION_DDOT":0},{"OBJECT_NAME":"KUIPER-00016","OBJECT_ID":"2025-088J","EPOCH":"2026-07-11T06:10:59.152512","CLASSIFICATION_TYPE":"U","MEAN_MOTION":14.79920043,"ECCENTRICITY":0.00005562,"INCLINATION":51.9008,"RA_OF_ASC_NODE":284.1538,"ARG_OF_PERICENTER":107.0505,"MEAN_ANOMALY":253.0518,"EPHEMERIS_TYPE":0,"NORAD_CAT_ID":63732,"ELEMENT_SET_NO":999,"REV_AT_EPOCH":6564,"BSTAR":0.00023813184,"MEAN_MOTION_DOT":0.00001594,"MEAN_MOTION_DDOT":0},{"OBJECT_NAME":"KUIPER-00018","OBJECT_ID":"2025-088K","EPOCH":"2026-07-12T12:25:29.961696","CLASSIFICATION_TYPE":"U","MEAN_MOTION":14.79931567,"ECCENTRICITY":0.000044,"INCLINATION":51.9044,"RA_OF_ASC_NODE":268.6142,"ARG_OF_PERICENTER":87.9184,"MEAN_ANOMALY":272.1828,"EPHEMERIS_TYPE":0,"NORAD_CAT_ID":63733,"ELEMENT_SET_NO":999,"REV_AT_EPOCH":6597,"BSTAR":0.000043974,"MEAN_MOTION_DOT":0.00000114,"MEAN_MOTION_DDOT":0},{"OBJECT_NAME":"KUIPER-00019","OBJECT_ID":"2025-088L","EPOCH":"2026-07-12T09:49:24.900672","CLASSIFICATION_TYPE":"U","MEAN_MOTION":14.79929158,"ECCENTRICITY":0.0000541,"INCLINATION":51.9,"RA_OF_ASC_NODE":267.8497,"ARG_OF_PERICENTER":108.7318,"MEAN_ANOMALY":251.3703,"EPHEMERIS_TYPE":0,"NORAD_CAT_ID":63734,"ELEMENT_SET_NO":999,"REV_AT_EPOCH":6597,"BSTAR":0.00002812,"MEAN_MOTION_DOT":-7e-8,"MEAN_MOTION_DDOT":0},{"OBJECT_NAME":"KUIPER-00020","OBJECT_ID":"2025-088M","EPOCH":"2026-07-12T12:21:32.640768","CLASSIFICATION_TYPE":"U","MEAN_MOTION":14.79898486,"ECCENTRICITY":0.0000595,"INCLINATION":51.9017,"RA_OF_ASC_NODE":271.1284,"ARG_OF_PERICENTER":80.2451,"MEAN_ANOMALY":279.8579,"EPHEMERIS_TYPE":0,"NORAD_CAT_ID":63735,"ELEMENT_SET_NO":999,"REV_AT_EPOCH":6614,"BSTAR":0.000078893,"MEAN_MOTION_DOT":0.0000038,"MEAN_MOTION_DDOT":0},{"OBJECT_NAME":"KUIPER-00021","OBJECT_ID":"2025-088N","EPOCH":"2026-07-12T09:55:44.840352","CLASSIFICATION_TYPE":"U","MEAN_MOTION":14.79937429,"ECCENTRICITY":0.0000367,"INCLINATION":51.9005,"RA_OF_ASC_NODE":271.5312,"ARG_OF_PERICENTER":70.8238,"MEAN_ANOMALY":289.2764,"EPHEMERIS_TYPE":0,"NORAD_CAT_ID":63736,"ELEMENT_SET_NO":999,"REV_AT_EPOCH":6596,"BSTAR":0.000098833,"MEAN_MOTION_DOT":0.00000533,"MEAN_MOTION_DDOT":0},{"OBJECT_NAME":"KUIPER-00023","OBJECT_ID":"2025-088P","EPOCH":"2026-07-12T12:17:33.577152","CLASSIFICATION_TYPE":"U","MEAN_MOTION":14.79923416,"ECCENTRICITY":0.0002453,"INCLINATION":51.8993,"RA_OF_ASC_NODE":273.5849,"ARG_OF_PERICENTER":121.8107,"MEAN_ANOMALY":238.3094,"EPHEMERIS_TYPE":0,"NORAD_CAT_ID":63737,"ELEMENT_SET_NO":999,"REV_AT_EPOCH":6624,"BSTAR":-0.00059723,"MEAN_MOTION_DOT":-0.0000477,"MEAN_MOTION_DDOT":0},{"OBJECT_NAME":"KUIPER-00024","OBJECT_ID":"2025-088Q","EPOCH":"2026-07-12T04:30:56.653344","CLASSIFICATION_TYPE":"U","MEAN_MOTION":14.79934563,"ECCENTRICITY":0.0000536,"INCLINATION":51.903,"RA_OF_ASC_NODE":262.6169,"ARG_OF_PERICENTER":99.3029,"MEAN_ANOMALY":260.7994,"EPHEMERIS_TYPE":0,"NORAD_CAT_ID":63738,"ELEMENT_SET_NO":999,"REV_AT_EPOCH":6649,"BSTAR":0.00015307663,"MEAN_MOTION_DOT":0.00000946,"MEAN_MOTION_DDOT":0},{"OBJECT_NAME":"KUIPER-00025","OBJECT_ID":"2025-088R","EPOCH":"2026-07-12T09:59:40.341696","CLASSIFICATION_TYPE":"U","MEAN_MOTION":14.79926603,"ECCENTRICITY":0.0000361,"INCLINATION":51.9034,"RA_OF_ASC_NODE":269.0877,"ARG_OF_PERICENTER":55.3851,"MEAN_ANOMALY":304.7145,"EPHEMERIS_TYPE":0,"NORAD_CAT_ID":63739,"ELEMENT_SET_NO":999,"REV_AT_EPOCH":6628,"BSTAR":0.00012461,"MEAN_MOTION_DOT":0.00000729,"MEAN_MOTION_DDOT":0}]}
