KUIPER-00008            
1 63724U 25088A   26193.19354064  .00000755  00000+0  12808-3 0  9996
2 63724  51.9009 257.4537 0000682 115.2596 244.8437 14.79929524 66484
KUIPER-00009            
1 63725U 25088B   26193.41104253  .00001853  00000+0  27202-3 0  9999
2 63725  51.9022 274.1233 0000439  95.6781 264.4231 14.79931641 66265
KUIPER-00010            
1 63726U 25088C   26192.69247762  .00000552  00000+0  10142-3 0  9992
2 63726  51.9008 254.7713 0000517  91.0866 269.0155 14.79926589 66090
KUIPER-00011            
1 63727U 25088D   26191.70519644  .00000637  00000+0  11257-3 0  9997
2 63727  51.9004 266.6870 0000627 109.5089 250.5941 14.79932450 65975
KUIPER-00012            
1 63728U 25088E   26193.51091596  .00000480  00000+0  92013-4 0  9996
2 63728  51.9009 243.6377 0000451  88.7728 271.3286 14.79933060 66401
KUIPER-00013            
1 63729U 25088F   26193.44210955  .00001038  00000+0  16512-3 0  9990
2 63729  51.9014 276.4595 0000536  93.1228 266.9796 14.79926861 66040
KUIPER-00014            
1 63730U 25088G   26193.47584757  .00000316  00000+0  70449-4 0  9997
2 63730  51.9016 276.2530 0000578 106.4197 253.6828 14.79927131 65869
KUIPER-00015            
1 63731U 25088H   26193.49883366  .00000169  00000+0  51114-4 0  9992
2 63731  51.8999 286.2143 0000473 112.6029 247.4983 14.79939546 66189
KUIPER-00016            
1 63732U 25088J   26192.25762908  .00001594  00000+0  23813-3 0  9991
2 63732  51.9008 284.1538 0000556 107.0505 253.0518 14.79920043 65645
KUIPER-00018            
1 63733U 25088K   26193.51770789  .00000114  00000+0  43974-4 0  9996
2 63733  51.9044 268.6142 0000440  87.9184 272.1828 14.79931567 65970
KUIPER-00019            
1 63734U 25088L   26193.40931598 -.00000007  00000+0  28120-4 0  9990
2 63734  51.9000 267.8497 0000541 108.7318 251.3703 14.79929158 65974
KUIPER-00020            
1 63735U 25088M   26193.51496112  .00000380  00000+0  78893-4 0  9996
2 63735  51.9017 271.1284 0000595  80.2451 279.8579 14.79898486 66141
KUIPER-00021            
1 63736U 25088N   26193.41371343  .00000533  00000+0  98833-4 0  9990
2 63736  51.9005 271.5312 0000367  70.8238 289.2764 14.79937429 65961
KUIPER-00023            
1 63737U 25088P   26193.51219418 -.00004770  00000+0 -59723-3 0  9999
2 63737  51.8993 273.5849 0002453 121.8107 238.3094 14.79923416 66248
KUIPER-00024            
1 63738U 25088Q   26193.18815571  .00000946  00000+0  15308-3 0  9995
2 63738  51.9030 262.6169 0000536  99.3029 260.7994 14.79934563 66498
KUIPER-00025            
1 63739U 25088R   26193.41643914  .00000729  00000+0  12461-3 0  9998
2 63739  51.9034 269.0877 0000361  55.3851 304.7145 14.79926603 66281
